STARLINK-31030          
1 58542C 23192M   26107.91368056  .00010467  00000+0  35270-3 0  1073
2 58542  53.1587 240.6860 0000722  52.6411 132.6207 15.30193943    11
STARLINK-31049          
1 58543C 23192N   26107.92687500 -.00000709  00000+0 -23900-4 0  1071
2 58543  53.1589 240.6585 0001152  78.6734 161.8684 15.30198086    18
STARLINK-31048          
1 58544C 23192P   26107.90951389  .00014193  00000+0  47830-3 0  1076
2 58544  53.1588 240.2749 0001030  79.5338 280.5665 15.30188773    11
STARLINK-31057          
1 58545C 23192Q   26107.92409722 -.00001734  00000+0 -58431-4 0  1077
2 58545  53.1592 240.7056 0001222  79.6880 128.1003 15.30195164    14
STARLINK-31050          
1 58546C 23192R   26107.98798611 -.00038634  00000+0 -13018-2 0  1071
2 58546  53.1598 240.4420 0001221  84.5513  97.9108 15.30217202    17
STARLINK-31063          
1 58547C 23192S   26107.91437500 -.00024326  00000+0 -81889-3 0  1077
2 58547  53.1577 230.2052 0001047  80.9201   3.6437 15.30242907    12
STARLINK-31016          
1 58548C 23192T   26107.89979167  .00018415  00000+0  62018-3 0  1078
2 58548  53.1585 240.3527 0000591  55.9752 232.9987 15.30206692    15
STARLINK-31053          
1 58549C 23192U   26107.90951389  .00018298  00000+0  61657-3 0  1074
2 58549  53.1597 240.8407 0001224  79.0323  13.4703 15.30190785    19
STARLINK-31056          
1 58550C 23192V   26107.95743056 -.00026631  00000+0 -89700-3 0  1072
2 58550  53.1582 240.1651 0000600  75.9874 153.2568 15.30225482    17
STARLINK-30999          
1 58551C 23192W   26108.00187500 -.00044204  00000+0 -14898-2 0  1088
2 58551  53.1600 230.1723 0001076  79.7765 254.4778 15.30213522    16
STARLINK-31046          
1 58552C 23192X   26107.95395833 -.00022128  00000+0 -74567-3 0  1072
2 58552  53.1599 240.7143 0001164  77.6895 219.0627 15.30208992    11
STARLINK-31044          
1 58589C 23200A   26107.93381944  .00044302  00000+0  16458-2 0  1078
2 58589  43.0034 307.4061 0001588 269.3249 335.4123 15.26724058    11
STARLINK-31062          
1 58590C 23200B   26107.94215278  .00041658  00000+0  15478-2 0  1079
2 58590  43.0011 310.3796 0001415 270.2946 187.3133 15.26720745    14
STARLINK-31096          
1 58592C 23200D   26107.94076389  .00064007  00000+0  22399-2 0  1072
2 58592  42.9991 308.2955 0008999 280.7216 338.2262 15.28631624    13
STARLINK-31094          
1 58593C 23200E   26107.97062500  .00032947  00000+0  11917-2 0  1078
2 58593  43.0013 306.9223 0001415 276.4297 296.7845 15.27606396    13
STARLINK-31075          
1 58594C 23200F   26107.91784722  .00003249  00000+0  11771-3 0  1072
2 58594  43.0005 306.9386 0001294 273.2851 122.5070 15.27569312    13
STARLINK-30857          
1 58595C 23200G   26107.96020833  .00056367  00000+0  20410-2 0  1072
2 58595  43.0030 307.0777 0001979 271.4281 201.9343 15.27558468    10
STARLINK-31059          
1 58596C 23200H   26107.99354167  .00028905  00000+0  10464-2 0  1071
2 58596  42.9990 150.1596 0001334 280.5199  22.3951 15.27579644    13
STARLINK-31087          
1 58597C 23200J   26107.93312500  .00028235  00000+0  10492-2 0  1078
2 58597  43.0016 306.8856 0001404 271.3896 194.0596 15.26721539    17
STARLINK-31079          
1 58598C 23200K   26107.97131944  .00078849  00000+0  13872-2 0  1075
2 58598  42.9824 272.9698 0032747 298.4771 129.2857 15.48926793    19
STARLINK-31052          
1 58600C 23200M   26107.90534722  .00029267  00000+0  10600-2 0  1079
2 58600  43.0005 307.1159 0001477 270.5526  13.9648 15.27566298    18
STARLINK-31074          
1 58601C 23200N   26107.96159722  .00058286  00000+0  21110-2 0  1070
2 58601  43.0006 306.8475 0001246 269.3174 303.6676 15.27551310    15
STARLINK-31071          
1 58602C 23200P   26107.92062500  .00002241  00000+0  81165-4 0  1072
2 58602  42.9994 147.1237 0001480 266.4921 331.0764 15.27574617    18
STARLINK-31080          
1 58603C 23200Q   26107.94562500  .00038824  00000+0  14428-2 0  1072
2 58603  43.0015 306.9277 0001251 270.1975 214.2259 15.26715721    14
STARLINK-31088          
1 58604C 23200R   26107.91645833 -.00020088  00000+0 -72808-3 0  1073
2 58604  43.0014 307.1716 0001297 268.5385  20.5738 15.27566791    13
STARLINK-31038          
1 58605C 23200S   26107.89979167  .00054741  00000+0  19122-2 0  1071
2 58605  43.0036 307.2922 0003022 288.3544 263.8878 15.28730630    16
STARLINK-31082          
1 58606C 23200T   26107.95256944  .00053671  00000+0  19458-2 0  1073
2 58606  43.0013 307.0329 0001551 276.4380 190.3123 15.27520994    18
STARLINK-31069          
1 58607C 23200U   26107.98659722  .00048352  00000+0  17516-2 0  1071
2 58607  43.0030 306.9379 0001384 277.2937 334.3100 15.27549565    12
STARLINK-31067          
1 58608C 23200V   26107.92409722  .00011533  00000+0  41777-3 0  1077
2 58608  43.0028 307.3422 0001577 277.5182 328.7323 15.27568507    14
STARLINK-31085          
1 58609C 23200W   26107.91993056  .00037275  00000+0  13502-2 0  1070
2 58609  43.0036 307.4111 0001705 271.9353 290.1653 15.27557349    11
STARLINK-31089          
1 58610C 23200X   26107.96159722  .00052721  00000+0  19586-2 0  1072
2 58610  43.0017 307.2807 0001684 268.7008  97.0133 15.26718113    13
STARLINK-31061          
1 58611C 23200Y   26107.93520833  .00044108  00000+0  15972-2 0  1070
2 58611  43.0033 307.3550 0001580 269.2825   2.7726 15.27564206    10
STARLINK-31054          
1 58619C 23203B   26107.96506944 -.00024201  00000+0 -87655-3 0  1073
2 58619  43.0001 205.4302 0001476 267.6621 190.6318 15.27590937    10
STARLINK-31134          
1 58621C 23203D   26107.96368056 -.00030238  00000+0 -10952-2 0  1078
2 58621  43.0012 205.7233 0001644 268.9848  61.4021 15.27593072    12
STARLINK-31133          
1 58622C 23203E   26107.94284722 -.00025444  00000+0 -92153-3 0  1071
2 58622  43.0012 205.5064 0001657 268.1283  89.0379 15.27593027    14
STARLINK-31068          
1 58623C 23203F   26107.97687500 -.00029970  00000+0 -10855-2 0  1072
2 58623  43.0027 205.2648 0001584 269.6773 296.0321 15.27592882    10
STARLINK-31129          
1 58624C 23203G   26107.92409722 -.00025850  00000+0 -93713-3 0  1074
2 58624  43.0030 205.5288 0001898 264.7681  24.6391 15.27560521    17
STARLINK-30774          
1 58625C 23203H   26107.98173611 -.00028619  00000+0 -10368-2 0  1076
2 58625  43.0029 205.1520 0001662 271.5824 356.3298 15.27584662    18
STARLINK-31086          
1 58626C 23203J   26107.96993056 -.00028286  00000+0 -10253-2 0  1071
2 58626  43.0026 204.8812 0001470 272.2641  72.1787 15.27566506    11
STARLINK-31065          
1 58627C 23203K   26107.96229167 -.00028805  00000+0 -10434-2 0  1075
2 58627  43.0031 205.0856 0001551 275.3510 323.2732 15.27589875    12
STARLINK-31092          
1 58628C 23203L   26107.99493056 -.00021290  00000+0 -77129-3 0  1075
2 58628  43.0031 205.0254 0001800 272.5316  89.2146 15.27581074    16
STARLINK-31091          
1 58629C 23203M   26107.92479167 -.00020629  00000+0 -74680-3 0  1070
2 58629  43.0017 209.1576 0001789 277.8810 292.9933 15.27603924    12
STARLINK-31084          
1 58630C 23203N   26107.93937500 -.00026314  00000+0 -95303-3 0  1075
2 58630  43.0029 209.0252 0001940 270.9489  41.4908 15.27593462    16
STARLINK-31064          
1 58631C 23203P   26107.98937500 -.00022898  00000+0 -82950-3 0  1078
2 58631  42.9999 208.9393 0001569 267.6006 235.2565 15.27585082    11
STARLINK-31081          
1 58632C 23203Q   26107.92895833 -.00024323  00000+0 -88224-3 0  1070
2 58632  43.0023 208.9668 0001677 271.8862  32.7115 15.27542600    14
STARLINK-31022          
1 58633C 23203R   26107.97756944 -.00024980  00000+0 -90470-3 0  1070
2 58633  43.0002 209.1076 0001446 266.5803 128.8024 15.27593504    13
STARLINK-31025          
1 58634C 23203S   26107.90812500 -.00019700  00000+0 -71345-3 0  1079
2 58634  43.0036 205.2222 0001782 272.2355  63.6259 15.27590895    16
STARLINK-31018          
1 58635C 23203T   26107.97201389 -.00020661  00000+0 -74787-3 0  1075
2 58635  42.9999 205.5443 0001627 272.5307 160.2060 15.27608755    18
STARLINK-31008          
1 58636C 23203U   26107.92062500 -.00018746  00000+0 -67884-3 0  1072
2 58636  43.0002 205.8693 0001513 271.6871 224.0725 15.27594691    16
STARLINK-31077          
1 58637C 23203V   26107.94770833 -.00030488  00000+0 -11043-2 0  1072
2 58637  42.9998 205.6306 0001549 268.3885  51.8751 15.27593338    17
STARLINK-31078          
1 58638C 23203W   26107.96645833 -.00023899  00000+0 -86582-3 0  1075
2 58638  43.0000 205.4742 0001620 270.3684 174.3453 15.27582389    10
STARLINK-31070          
1 58639C 23203X   26107.96437500 -.00027766  00000+0 -10057-2 0  1076
2 58639  43.0008 205.6710 0001356 270.8810  84.5508 15.27593048    15
STARLINK-31090          
1 58640C 23203Y   26107.98659722 -.00025814  00000+0 -93499-3 0  1076
2 58640  43.0008 197.4700 0001487 270.9787 329.6198 15.27591406    17
STARLINK-31113          
1 58668C 23211B   26107.94493056 -.00019360  00000+0 -70111-3 0  1072
2 58668  43.0027 223.2871 0001494 270.5168  19.1952 15.27592603    11
STARLINK-31128          
1 58669C 23211C   26107.92548611  .00002470  00000+0  89476-4 0  1076
2 58669  43.0034 223.6156 0001960 271.1655 179.5463 15.27574925    11
STARLINK-31083          
1 58670C 23211D   26107.90326389  .00011933  00000+0  43220-3 0  1072
2 58670  43.0017 223.4725 0001478 273.2176 168.3307 15.27573943    11
STARLINK-30828          
1 58671C 23211E   26107.98312500 -.00022910  00000+0 -82995-3 0  1072
2 58671  43.0028 223.4264 0001847 275.1887  76.2476 15.27583754    17
STARLINK-31104          
1 58672C 23211F   26107.90534722  .00001300  00000+0  30853-4 0  1072
2 58672  42.9953 219.8608 0014888   4.6175 135.9446 15.40739240    16
STARLINK-31131          
1 58673C 23211G   26107.96923611 -.00022247  00000+0 -80584-3 0  1078
2 58673  43.0030 212.6515 0001707 267.5515 148.1256 15.27587192    14
